     2.100          NAVIGATION                              RINEX VERSION / TYPE
fic2rin                                 06/02/2014 00:14:09 PGM / RUN BY / DATE
                                                            END OF HEADER
 8 14  6  1  1 59 44.0  .139218755066D-04  .227373675443D-12  .000000000000D+00
     .190000000000D+02  .865625000000D+02  .367408161168D-08  .118157618279D+01
     .460073351860D-05  .137239587493D-01  .436790287495D-05  .515335799408D+04
     .718400000000D+04 -.147148966789D-06  .144099882366D+01  .186264514923D-06
     .996466904241D+00  .314187500000D+03 -.277425686581D+01 -.788604277105D-08
     .101789954246D-09  .100000000000D+01  .179500000000D+04  .000000000000D+00
     .240000000000D+01  .000000000000D+00 -.419095158577D-08  .190000000000D+02
     .600000000000D+01  .400000000000D+01
21 14  6  1  1 59 44.0 -.364391598850D-03 -.216004991671D-11  .000000000000D+00
     .170000000000D+02  .145000000000D+02  .556701760291D-08  .692247347704D+00
     .103190541267D-05  .215008883970D-01  .845827162266D-05  .515374728966D+04
     .718400000000D+04 -.217929482460D-06 -.183140182764D+01  .122934579849D-06
     .932016876461D+00  .208156250000D+03 -.202095164187D+01 -.877500837146D-08
     .263225250103D-09  .100000000000D+01  .179500000000D+04  .000000000000D+00
     .240000000000D+01  .000000000000D+00 -.111758708954D-07  .170000000000D+02
     .600000000000D+01  .400000000000D+01
 2 14  6  1  2  0  0.0  .498547218740D-03  .216004991671D-11  .000000000000D+00
     .310000000000D+02  .172500000000D+02  .511592738462D-08  .291240469511D+01
     .739470124245D-06  .135486844229D-01  .815093517303D-05  .515361188316D+04
     .720000000000D+04 -.968575477600D-07 -.184869716200D+01 -.162050127983D-06
     .939087797370D+00  .207468750000D+03 -.242017203347D+01 -.799961893052D-08
     .398588031363D-09  .100000000000D+01  .179500000000D+04  .000000000000D+00
     .240000000000D+01  .000000000000D+00 -.204890966415D-07  .310000000000D+02
     .600000000000D+01  .400000000000D+01
 3 14  6  1  2  0  0.0  .372231937945D-03  .488853402203D-11  .000000000000D+00
     .119000000000D+03 -.109406250000D+03  .483698719422D-08  .302695047412D+01
    -.584311783314D-05  .170447920682D-01  .844709575176D-05  .515380320168D+04
     .720000000000D+04  .244006514549D-06 -.302308589660D+01 -.182539224625D-06
     .938782002141D+00  .202906250000D+03  .138491936882D+01 -.788068540504D-08
     .217866217860D-10  .100000000000D+01  .179500000000D+04  .000000000000D+00
     .340000000000D+01  .000000000000D+00 -.465661287308D-08  .119000000000D+03
     .600000000000D+01  .400000000000D+01
 4 14  6  1  2  0  0.0  .702217221260D-05  .227373675443D-12  .000000000000D+00
     .710000000000D+02  .229687500000D+02  .535522306654D-08 -.165827367261D-01
     .139325857162D-05  .105809528613D-01  .780448317528D-05  .515373456764D+04
     .720000000000D+04 -.838190317154D-07 -.183267394609D+01  .119209289551D-06
     .938096254903D+00  .216500000000D+03  .110000309826D+01 -.851571185644D-08
     .376801409577D-09  .100000000000D+01  .179500000000D+04  .000000000000D+00
     .240000000000D+01  .000000000000D+00 -.651925802231D-08  .710000000000D+02
     .600000000000D+01  .400000000000D+01
 5 14  6  1  2  0  0.0 -.368983019143D-03  .261479726760D-11  .000000000000D+00
     .390000000000D+02 -.116250000000D+02  .510414117940D-08 -.100293257059D+01
    -.618398189545D-06  .357741443440D-02  .602193176746D-05  .515359670067D+04
     .720000000000D+04  .819563865662D-07 -.780502155482D+00 -.447034835815D-07
     .947133627369D+00  .257843750000D+03  .304362808401D+00 -.823962892790D-08
    -.408231290186D-09  .100000000000D+01  .179500000000D+04  .000000000000D+00
     .240000000000D+01  .000000000000D+00 -.102445483208D-07  .390000000000D+02
     .600000000000D+01  .400000000000D+01
 7 14  6  1  2  0  0.0  .352603849024D-03  .420641299570D-11  .000000000000D+00
     .290000000000D+02  .935000000000D+02  .414410118988D-08  .167044033364D+01
     .490061938763D-05  .739175057970D-02  .491552054882D-05  .515363324165D+04
     .720000000000D+04 -.875443220139D-07  .134142273278D+01  .949949026108D-07
     .973237726915D+00  .291250000000D+03 -.283882725518D+01 -.805997858760D-08
     .173578658819D-09  .100000000000D+01  .179500000000D+04  .000000000000D+00
     .240000000000D+01  .000000000000D+00 -.107102096081D-07  .290000000000D+02
     .600000000000D+01  .400000000000D+01
10 14  6  1  2  0  0.0 -.127892475575D-03 -.159161572810D-11  .000000000000D+00
     .119000000000D+03 -.125312500000D+02  .532593613233D-08 -.794217006623D+00
    -.597909092903D-06  .135706079891D-01  .571273267269D-05  .515372735786D+04
     .720000000000D+04  .763684511185D-07 -.763258092009D+00  .299885869026D-06
     .941945988197D+00  .257750000000D+03  .865352305237D+00 -.850892585949D-08
    -.477877048354D-09  .100000000000D+01  .179500000000D+04  .000000000000D+00
     .340000000000D+01  .000000000000D+00 -.279396772385D-08  .119000000000D+03
     .600000000000D+01  .400000000000D+01
11 14  6  1  2  0  0.0 -.493586994708D-03 -.318323145621D-11  .000000000000D+00
     .190000000000D+02 -.315625000000D+01  .614489881684D-08  .183359543965D+01
    -.391155481339D-06  .149791868171D-01  .904314219952D-05  .515370553780D+04
     .720000000000D+04 -.633299350739D-07 -.214338028912D+01 -.432133674622D-06
     .890437688612D+00  .167656250000D+03  .128768911536D+01 -.858964350742D-08
     .466448000860D-09  .100000000000D+01  .179500000000D+04  .000000000000D+00
     .240000000000D+01  .000000000000D+00 -.121071934700D-07  .190000000000D+02
     .600000000000D+01  .400000000000D+01
12 14  6  1  2  0  0.0  .208602286875D-03  .250111042988D-11  .000000000000D+00
     .670000000000D+02 -.594375000000D+02  .414874424042D-08  .121301792912D+01
    -.332109630108D-05  .514779554214D-02  .274553894997D-05  .515361431503D+04
     .720000000000D+04 -.353902578354D-07  .240494077265D+01  .745058059692D-07
     .987630924392D+00  .340875000000D+03  .444300746178D+00 -.813748181592D-08
    -.123576576032D-09  .100000000000D+01  .179500000000D+04  .000000000000D+00
     .240000000000D+01  .000000000000D+00 -.121071934700D-07  .670000000000D+02
     .600000000000D+01  .400000000000D+01
13 14  6  1  2  0  0.0 -.589992851019D-05 -.386535248253D-11  .000000000000D+00
     .680000000000D+02  .574687500000D+02  .377158567311D-08 -.229781925168D+01
     .296905636787D-05  .538546044845D-02  .102911144495D-04  .515359022522D+04
     .720000000000D+04 -.111758708954D-07  .377016199049D+00  .137835741043D-06
     .977933035636D+00  .190687500000D+03  .227209699131D+01 -.756674375668D-08
    -.297512392585D-09  .100000000000D+01  .179500000000D+04  .000000000000D+00
     .240000000000D+01  .000000000000D+00 -.111758708954D-07  .680000000000D+02
     .600000000000D+01  .400000000000D+01
14 14  6  1  2  0  0.0  .167740043253D-03 -.352429196937D-11  .000000000000D+00
     .490000000000D+02  .480937500000D+02  .392552065655D-08 -.192994024731D+01
     .246055424213D-05  .753825495485D-02  .106617808342D-04  .515366860008D+04
     .720000000000D+04  .175088644028D-06  .345140207424D+00 -.124797224998D-06
     .970502013053D+00  .181156250000D+03 -.200301114893D+01 -.753638534927D-08
    -.362872257943D-09  .100000000000D+01  .179500000000D+04  .000000000000D+00
     .340000000000D+01  .000000000000D+00 -.931322574615D-08  .490000000000D+02
     .600000000000D+01  .400000000000D+01
15 14  6  1  2  0  0.0 -.182715244591D-03 -.216004991671D-11  .000000000000D+00
     .550000000000D+02  .438750000000D+02  .469412410054D-08 -.254741557130D+01
     .222772359848D-05  .626907683909D-02  .104121863842D-04  .515370342827D+04
     .720000000000D+04 -.130385160446D-07  .233042424318D+00 -.670552253723D-07
     .937095355612D+00  .166593750000D+03  .275792855102D+00 -.797854662421D-08
    -.367158150754D-09  .100000000000D+01  .179500000000D+04  .000000000000D+00
     .240000000000D+01  .000000000000D+00 -.102445483208D-07  .550000000000D+02
     .600000000000D+01  .400000000000D+01
16 14  6  1  2  0  0.0 -.215540640056D-03  .204636307899D-11  .000000000000D+00
     .860000000000D+02 -.601250000000D+02  .405409744086D-08 -.918984059672D+00
    -.313669443130D-05  .774563848972D-02  .243447721004D-05  .515359741592D+04
     .720000000000D+04  .149011611938D-06  .242349548198D+01 -.819563865662D-07
     .988246807052D+00  .339781250000D+03  .212889194638D+00 -.806569311135D-08
     .785747015231D-11  .100000000000D+01  .179500000000D+04  .000000000000D+00
     .240000000000D+01  .000000000000D+00 -.102445483208D-07  .860000000000D+02
     .600000000000D+01  .400000000000D+01
17 14  6  1  2  0  0.0 -.977511517704D-04 -.306954461848D-11  .000000000000D+00
     .830000000000D+02 -.752187500000D+02  .422731894194D-08 -.185352574841D+01
    -.386126339436D-05  .929384317715D-02  .100601464510D-04  .515360277367D+04
     .720000000000D+04  .141561031342D-06 -.282826419521D+01  .204890966415D-07
     .969043956250D+00  .186687500000D+03 -.209811504657D+01 -.765567603249D-08
     .206437170365D-09  .100000000000D+01  .179500000000D+04  .000000000000D+00
     .240000000000D+01  .000000000000D+00 -.102445483208D-07  .830000000000D+02
     .600000000000D+01  .400000000000D+01
18 14  6  1  2  0  0.0  .322736799717D-03  .227373675443D-11  .000000000000D+00
     .460000000000D+02 -.718750000000D+01  .583202864169D-08 -.265678453088D+00
    -.283122062683D-06  .153402925935D-01  .546686351299D-05  .515368798256D+04
     .720000000000D+04 -.745058059692D-07 -.785867691344D+00  .180676579475D-06
     .925690813458D+00  .256218750000D+03 -.203532698443D+01 -.889537052789D-08
    -.358229207399D-09  .100000000000D+01  .179500000000D+04  .000000000000D+00
     .240000000000D+01  .000000000000D+00 -.111758708954D-07  .460000000000D+02
     .600000000000D+01  .400000000000D+01
